H1 CPF  2  SHA 2024 03 16 03   76  1 hy2b             NONE
H2  1808101 2208    43655 2024  3 16  0  0  0 2024  3 20 11 59  0    60 1 1  0 0 0 1
H9
10 0 60385   7200.000000  0      -1308235.022         75313.817       7219244.780
10 0 60385   7260.000000  0      -1099980.969        470637.372       7238994.155
10 0 60385   7320.000000  0       -884328.091        862413.930       7232513.194
10 0 60385   7380.000000  0       -662089.201       1249173.719       7199825.519
10 0 60385   7440.000000  0       -434113.605       1629471.987       7141049.131
10 0 60385   7500.000000  0       -201283.616       2001894.837       7056395.968
10 0 60385   7560.000000  0         35488.617       2365064.082       6946171.241
10 0 60385   7620.000000  0        275264.882       2717642.729       6810772.315
10 0 60385   7680.000000  0        517084.525       3058339.787       6650687.383
10 0 60385   7740.000000  0        759968.148       3385914.890       6466493.895
10 0 60385   7800.000000  0       1002921.823       3699183.264       6258856.395
10 0 60385   7860.000000  0       1244940.833       3997019.691       6028524.479
10 0 60385   7920.000000  0       1485014.114       4278363.054       5776329.931
10 0 60385   7980.000000  0       1722128.172       4542219.883       5503184.144
10 0 60385   8040.000000  0       1955271.648       4787668.352       5210074.601
10 0 60385   8100.000000  0       2183439.348       5013861.323       4898061.717
10 0 60385   8160.000000  0       2405636.797       5220029.652       4568274.793
10 0 60385   8220.000000  0       2620884.455       5405484.824       4221908.149
10 0 60385   8280.000000  0       2828221.961       5569621.361       3860216.981
10 0 60385   8340.000000  0       3026712.611       5711919.148       3484512.550
10 0 60385   8400.000000  0       3215447.353       5831945.073       3096157.789
10 0 60385   8460.000000  0       3393549.176       5929354.613       2696561.821
10 0 60385   8520.000000  0       3560176.899       6003892.697       2287175.228
10 0 60385   8580.000000  0       3714529.273       6055394.480       1869484.208
10 0 60385   8640.000000  0       3855848.509       6083785.550       1445005.599
10 0 60385   8700.000000  0       3983424.043       6089081.931       1015280.780
10 0 60385   8760.000000  0       4096595.861       6071389.583        581870.134
10 0 60385   8820.000000  0       4194757.667       6030903.558        146347.378
10 0 60385   8880.000000  0       4277359.965       5967906.748       -289706.708
10 0 60385   8940.000000  0       4343912.703       5882768.336       -724709.694
10 0 60385   9000.000000  0       4393987.855       5775941.795      -1157083.845
10 0 60385   9060.000000  0       4427221.606       5647962.694      -1585261.530
10 0 60385   9120.000000  0       4443316.365       5499445.948      -2007691.516
10 0 60385   9180.000000  0       4442042.413       5331083.037      -2422844.176
10 0 60385   9240.000000  0       4423239.313       5143638.597      -2829217.628
10 0 60385   9300.000000  0       4386816.984       4937946.963      -3225342.972
10 0 60385   9360.000000  0       4332756.506       4714908.451      -3609789.526
10 0 60385   9420.000000  0       4261110.570       4475485.117      -3981170.351
10 0 60385   9480.000000  0       4172003.729       4220696.760      -4338146.788
10 0 60385   9540.000000  0       4065632.223       3951616.207      -4679433.652
10 0 60385   9600.000000  0       3942263.676       3669364.985      -5003803.375
10 0 60385   9660.000000  0       3802236.281       3375108.239      -5310090.697
10 0 60385   9720.000000  0       3645957.941       3070050.140      -5597196.349
10 0 60385   9780.000000  0       3473904.879       2755428.613      -5864091.138
10 0 60385   9840.000000  0       3286620.133       2432510.340      -6109819.328
10 0 60385   9900.000000  0       3084711.858       2102585.798      -6333501.757
10 0 60385   9960.000000  0       2868851.053       1766963.723      -6534339.024
10 0 60385  10020.000000  0       2639769.480       1426966.294      -6711613.881
10 0 60385  10080.000000  0       2398256.894       1083923.596      -6864693.788
10 0 60385  10140.000000  0       2145158.536        739168.819      -6993032.793
10 0 60385  10200.000000  0       1881371.904        394032.779      -7096173.479
10 0 60385  10260.000000  0       1607843.842         49839.220      -7173748.335
10 0 60385  10320.000000  0       1325566.891       -292100.539      -7225481.059
10 0 60385  10380.000000  0       1035575.780       -630492.393      -7251187.376
10 0 60385  10440.000000  0        738943.831       -964064.096      -7250775.598
10 0 60385  10500.000000  0        436778.720      -1291570.321      -7224246.925
10 0 60385  10560.000000  0        130218.803      -1611796.782      -7171695.446
10 0 60385  10620.000000  0       -179571.480      -1923565.091      -7093307.828
10 0 60385  10680.000000  0       -491405.569      -2225736.634      -6989362.812
10 0 60385  10740.000000  0       -804079.640      -2517217.110      -6860230.226
10 0 60385  10800.000000  0      -1116376.809      -2796960.119      -6706369.894
10 0 60385  10860.000000  0      -1427072.094      -3063971.205      -6528330.025
10 0 60385  10920.000000  0      -1734937.005      -3317311.270      -6326745.488
10 0 60385  10980.000000  0      -2038744.234      -3556099.846      -6102335.835
10 0 60385  11040.000000  0      -2337272.792      -3779518.453      -5855902.767
10 0 60385  11100.000000  0      -2629312.553      -3986813.243      -5588327.744
10 0 60385  11160.000000  0      -2913669.541      -4177297.942      -5300568.742
10 0 60385  11220.000000  0      -3189170.465      -4350355.974      -4993657.334
10 0 60385  11280.000000  0      -3454667.950      -4505442.831      -4668694.802
10 0 60385  11340.000000  0      -3709044.996      -4642087.682      -4326848.744
10 0 60385  11400.000000  0      -3951220.034      -4759895.112      -3969348.666
10 0 60385  11460.000000  0      -4180151.447      -4858546.272      -3597481.845
10 0 60385  11520.000000  0      -4394842.040      -4937799.816      -3212588.932
10 0 60385  11580.000000  0      -4594343.671      -4997492.604      -2816058.808
10 0 60385  11640.000000  0      -4777761.270      -5037539.924      -2409324.025
10 0 60385  11700.000000  0      -4944257.122      -5057935.531      -1993855.194
10 0 60385  11760.000000  0      -5093054.532      -5058751.268      -1571156.073
10 0 60385  11820.000000  0      -5223441.652      -5040136.400      -1142757.586
10 0 60385  11880.000000  0      -5334774.690      -5002316.626       -710212.713
10 0 60385  11940.000000  0      -5426481.193      -4945592.740       -275090.241
10 0 60385  12000.000000  0      -5498062.812      -4870338.992        161030.815
10 0 60385  12060.000000  0      -5549097.828      -4777001.176        596566.972
10 0 60385  12120.000000  0      -5579243.430      -4666094.280       1029936.607
10 0 60385  12180.000000  0      -5588237.543      -4538200.031       1459565.410
10 0 60385  12240.000000  0      -5575900.395      -4393963.924       1883892.755
10 0 60385  12300.000000  0      -5542135.706      -4234092.259       2301377.038
10 0 60385  12360.000000  0      -5486931.515      -4059348.639       2710501.907
10 0 60385  12420.000000  0      -5410360.698      -3870550.566       3109781.427
10 0 60385  12480.000000  0      -5312581.062      -3668565.511       3497765.982
10 0 60385  12540.000000  0      -5193835.112      -3454306.992       3873047.494
10 0 60385  12600.000000  0      -5054449.534      -3228730.554       4234264.415
10 0 60385  12660.000000  0      -4894834.112      -2992829.239       4580107.102
10 0 60385  12720.000000  0      -4715480.572      -2747629.432       4909322.150
10 0 60385  12780.000000  0      -4516960.812      -2494186.116       5220717.263
10 0 60385  12840.000000  0      -4299925.148      -2233578.564       5513165.173
10 0 60385  12900.000000  0      -4065099.862      -1966905.452       5785608.002
10 0 60385  12960.000000  0      -3813284.888      -1695280.485       6037060.700
10 0 60385  13020.000000  0      -3545350.741      -1419827.458       6266614.815
10 0 60385  13080.000000  0      -3262235.450      -1141675.669       6473441.571
10 0 60385  13140.000000  0      -2964941.287       -861955.389       6656794.657
10 0 60385  13200.000000  0      -2654530.764       -581792.936       6816013.015
10 0 60385  13260.000000  0      -2332123.106       -302306.485       6950522.846
10 0 60385  13320.000000  0      -1998889.735        -24601.275       7059839.743
10 0 60385  13380.000000  0      -1656050.369        250234.388       7143570.153
10 0 60385  13440.000000  0      -1304868.106        521133.720       7201412.856
10 0 60385  13500.000000  0       -946645.157        787055.269       7233159.875
10 0 60385  13560.000000  0       -582717.644       1046987.190       7238697.248
10 0 60385  13620.000000  0       -214450.768       1299950.967       7218005.367
10 0 60385  13680.000000  0        156766.189       1545005.026       7171159.071
10 0 60385  13740.000000  0        529525.455       1781248.483       7098327.352
10 0 60385  13800.000000  0        902405.681       2007824.185       6999772.823
10 0 60385  13860.000000  0       1273977.813       2223922.130       6875850.731
10 0 60385  13920.000000  0       1642810.105       2428782.093       6727007.878
10 0 60385  13980.000000  0       2007474.113       2621696.612       6553780.944
10 0 60385  14040.000000  0       2366549.778       2802013.220       6356794.868
10 0 60385  14100.000000  0       2718631.421       2969136.924       6136760.532
10 0 60385  14160.000000  0       3062333.115       3122532.129       5894472.390
10 0 60385  14220.000000  0       3396294.102       3261724.349       5630805.803
10 0 60385  14280.000000  0       3719184.579       3386301.874       5346713.727
10 0 60385  14340.000000  0       4029710.690       3495916.849       5043223.651
99